OBJECT_NAME,OBJECT_ID,EPOCH,MEAN_MOTION,ECCENTRICITY,INCLINATION,RA_OF_ASC_NODE,ARG_OF_PERICENTER,MEAN_ANOMALY,EPHEMERIS_TYPE,CLASSIFICATION_TYPE,NORAD_CAT_ID,ELEMENT_SET_NO,REV_AT_EPOCH,BSTAR,MEAN_MOTION_DOT,MEAN_MOTION_DDOT
STARLINK-37817,2026-131C,2026-07-01T07:16:37.553088,15.80904891,.00020262,97.2834,203.4030,110.2005,249.9482,0,U,69480,999,439,.16023762E-2,.3196E-2,0
STARLINK-37727,2026-131D,2026-07-01T11:48:59.141952,15.80999504,.00019536,97.2843,203.6045,272.9692,87.1353,0,U,69481,999,442,.18214874E-2,.366898E-2,0
STARLINK-37814,2026-131E,2026-07-01T11:47:54.413664,15.80960332,.00012273,97.2841,203.6056,265.3034,94.8094,0,U,69482,999,442,.12786134E-2,.253695E-2,0
STARLINK-37869,2026-131F,2026-07-01T11:46:49.208448,15.81009579,.00021312,97.2833,203.6066,273.2997,86.8027,0,U,69483,999,442,.18899555E-2,.381517E-2,0
STARLINK-37873,2026-131G,2026-07-01T11:45:45.167904,15.80982059,.00009005,97.2810,203.6079,357.9657,2.1607,0,U,69484,999,442,.15632091E-2,.312636E-2,0
STARLINK-37892,2026-131H,2026-07-01T08:00:03.000384,15.80815556,.00013957,97.2845,203.4444,96.5797,96.4332,0,U,69485,999,428,-.25798884E-3,-.4928E-3,0
STARLINK-37893,2026-131J,2026-07-01T11:43:35.787360,15.80965362,.00012228,97.2831,203.6105,295.4886,64.6255,0,U,69486,999,442,.18980384E-2,.382426E-2,0
STARLINK-37842,2026-131K,2026-07-01T11:42:30.616704,15.80956073,.0001691,97.2841,203.6110,75.6948,284.4508,0,U,69487,999,442,.1892496E-2,.381081E-2,0
STARLINK-37449,2026-131L,2026-07-01T11:41:25.129824,15.80945038,.000123,97.2841,203.6125,331.1872,28.9329,0,U,69488,999,442,.13792233E-2,.274126E-2,0
STARLINK-37831,2026-131M,2026-07-01T11:40:20.292672,15.80980676,.00008325,97.2835,203.6130,328.8734,31.2485,0,U,69489,999,442,.14532585E-2,.289851E-2,0
STARLINK-37879,2026-131N,2026-07-01T07:05:47.832000,15.80924930,.0002917,97.2852,203.4165,130.1917,229.9607,0,U,69490,999,439,.10729E-2,.2115E-2,0
STARLINK-37856,2026-131P,2026-07-01T11:50:16.188288,15.80938717,.00004646,97.2811,203.6040,271.7084,88.4131,0,U,69491,999,442,.15090613E-2,.3008E-2,0
STARLINK-37568,2026-131Q,2026-07-01T05:32:29.214816,15.80924878,.0001352,97.2851,203.3524,355.0995,5.0260,0,U,69492,999,438,.10744E-2,.211781E-2,0
STARLINK-37855,2026-131R,2026-07-01T11:45:57.794400,15.81053844,.00014454,97.2831,203.6084,18.4107,341.7214,0,U,69493,999,442,.25670951E-2,.528264E-2,0
STARLINK-37854,2026-131S,2026-07-01T07:14:11.335776,15.80931746,.0001585,97.2844,203.4052,110.0709,250.0730,0,U,69494,999,439,.12095E-2,.239265E-2,0
STARLINK-37789,2026-131T,2026-07-01T11:33:50.597568,15.80971529,.00021277,97.2840,203.6195,335.9940,24.1229,0,U,69495,999,316,.17306784E-2,.347369E-2,0
STARLINK-37839,2026-131U,2026-07-01T11:44:07.648224,15.81042220,.00014692,97.2839,203.6100,12.2171,347.9133,0,U,69496,999,316,.23198085E-2,.474106E-2,0
STARLINK-37798,2026-131V,2026-07-01T06:59:18.550752,15.81007944,.0000941,97.2836,203.4216,99.3177,260.8198,0,U,69497,999,313,.21204E-2,.430491E-2,0
STARLINK-37853,2026-131W,2026-07-01T00:49:17.690592,15.80892022,.00011971,97.2835,203.1582,40.5415,319.5943,0,U,69498,999,309,.90644507E-3,.177681E-2,0
STARLINK-37849,2026-131X,2026-07-01T00:50:22.627104,15.80847586,.00030605,97.2825,203.1543,343.9148,16.2022,0,U,69499,999,309,.13399966E-2,.264887E-2,0
STARLINK-37835,2026-131Y,2026-07-01T05:25:59.504160,15.81003789,.0001322,97.2840,203.3560,78.5922,281.5495,0,U,69500,999,312,.20182E-2,.40859E-2,0
STARLINK-37843,2026-131Z,2026-07-01T14:31:50.028960,15.80866472,.00011841,97.2837,203.7580,96.0147,264.1257,0,U,69501,999,318,.7533956E-3,.146962E-2,0
STARS-X,2026-132A,2026-07-01T10:33:08.455680,14.99074400,.00134629,97.6884,245.9264,216.2342,143.7970,0,U,69502,999,291,.12845225E-3,.1502E-4,0
2026-132B,2026-132B,2026-07-01T10:31:30.116928,14.99157786,.00133574,97.6915,245.9356,218.3785,141.6489,0,U,69503,999,291,.10902019E-3,.1269E-4,0
BRO-22,2026-132C,2026-07-01T10:19:55.015104,14.99778557,.00151805,97.6845,245.9286,231.1967,128.7901,0,U,69504,999,291,.99311059E-4,.117E-4,0
HORN-L,2026-132D,2026-06-29T06:11:11.565600,15.05986778,.00200449,97.6856,243.8572,250.8339,109.0718,0,U,69505,999,259,.25851412E-3,.3719E-4,0
VERTECS,2026-132E,2026-07-01T14:46:52.024224,15.00940898,.00139975,97.6863,246.1557,252.7856,107.1836,0,U,69506,999,293,.22628567E-3,.2829E-4,0
HORN-R,2026-132F,2026-07-01T03:10:06.179808,15.03814155,.00160675,97.6839,245.6971,247.6281,112.3242,0,U,69507,999,286,.13953478E-3,.1861E-4,0
STARLINK-37536,2026-133A,2026-07-01T14:00:01.999872,15.65992972,.00008874,53.1595,250.1275,64.0667,219.0911,0,U,69508,999,428,-.25702084E-1,-.2354889E-1,0
STARLINK-37341,2026-133B,2026-07-01T14:00:01.999872,15.64726171,.00008615,53.1594,250.1115,63.5952,227.4346,0,U,69509,999,428,-.29199839E-1,-.2517229E-1,0
