STARLINK-37817          
1 69480U 26131C   26182.30321242  .00319600  00000+0  16024-2 0  9999
2 69480  97.2834 203.4030 0002026 110.2005 249.9482 15.80904891  4392
STARLINK-37727          
1 69481U 26131D   26182.49235118  .00366898  00000+0  18215-2 0  9991
2 69481  97.2843 203.6045 0001953 272.9692  87.1353 15.80999504  4425
STARLINK-37814          
1 69482U 26131E   26182.49160201  .00253695  00000+0  12786-2 0  9999
2 69482  97.2841 203.6056 0001227 265.3034  94.8094 15.80960332  4420
STARLINK-37869          
1 69483U 26131F   26182.49084732  .00381517  00000+0  18900-2 0  9993
2 69483  97.2833 203.6066 0002131 273.2997  86.8027 15.81009579  4429
STARLINK-37873          
1 69484U 26131G   26182.49010611  .00312636  00000+0  15632-2 0  9994
2 69484  97.2810 203.6079 0000900 357.9657   2.1607 15.80982059  4421
STARLINK-37892          
1 69485U 26131H   26182.33336806 -.00049280  00000+0 -25799-3 0  9995
2 69485  97.2845 203.4444 0001395  96.5797  96.4332 15.80815556  4286
STARLINK-37893          
1 69486U 26131J   26182.48860865  .00382426  00000+0  18980-2 0  9992
2 69486  97.2831 203.6105 0001222 295.4886  64.6255 15.80965362  4424
STARLINK-37842          
1 69487U 26131K   26182.48785436  .00381081  00000+0  18925-2 0  9998
2 69487  97.2841 203.6110 0001691  75.6948 284.4508 15.80956073  4421
STARLINK-37449          
1 69488U 26131L   26182.48709641  .00274126  00000+0  13792-2 0  9991
2 69488  97.2841 203.6125 0001230 331.1872  28.9329 15.80945038  4424
STARLINK-37831          
1 69489U 26131M   26182.48634598  .00289851  00000+0  14533-2 0  9995
2 69489  97.2835 203.6130 0000832 328.8734  31.2485 15.80980676  4428
STARLINK-37879          
1 69490U 26131N   26182.29569250  .00211500  00000+0  10729-2 0  9997
2 69490  97.2852 203.4165 0002917 130.1917 229.9607 15.80924930  4397
STARLINK-37856          
1 69491U 26131P   26182.49324292  .00300800  00000+0  15091-2 0  9994
2 69491  97.2811 203.6040 0000464 271.7084  88.4131 15.80938717  4421
STARLINK-37568          
1 69492U 26131Q   26182.23089369  .00211781  00000+0  10744-2 0  9999
2 69492  97.2851 203.3524 0001352 355.0995   5.0260 15.80924878  4380
STARLINK-37855          
1 69493U 26131R   26182.49025225  .00528264  00000+0  25671-2 0  9991
2 69493  97.2831 203.6084 0001445  18.4107 341.7214 15.81053844  4422
STARLINK-37854          
1 69494U 26131S   26182.30152009  .00239265  00000+0  12095-2 0  9999
2 69494  97.2844 203.4052 0001585 110.0709 250.0730 15.80931746  4398
STARLINK-37789          
1 69495U 26131T   26182.48183562  .00347369  00000+0  17307-2 0  9993
2 69495  97.2840 203.6195 0002127 335.9940  24.1229 15.80971529  3163
STARLINK-37839          
1 69496U 26131U   26182.48897741  .00474106  00000+0  23198-2 0  9990
2 69496  97.2839 203.6100 0001469  12.2171 347.9133 15.81042220  3165
STARLINK-37798          
1 69497U 26131V   26182.29118693  .00430491  00000+0  21204-2 0  9997
2 69497  97.2836 203.4216 0000941  99.3177 260.8198 15.81007944  3130
STARLINK-37853          
1 69498U 26131W   26182.03423253  .00177681  00000+0  90645-3 0  9996
2 69498  97.2835 203.1582 0001197  40.5415 319.5943 15.80892022  3093
STARLINK-37849          
1 69499U 26131X   26182.03498411  .00264887  00000+0  13400-2 0  9993
2 69499  97.2825 203.1543 0003060 343.9148  16.2022 15.80847586  3098
STARLINK-37835          
1 69500U 26131Y   26182.22638315  .00408590  00000+0  20182-2 0  9992
2 69500  97.2840 203.3560 0001322  78.5922 281.5495 15.81003789  3124
STARLINK-37843          
1 69501U 26131Z   26182.60544015  .00146962  00000+0  75340-3 0  9997
2 69501  97.2837 203.7580 0001184  96.0147 264.1257 15.80866472  3181
STARS-X                 
1 69502U 26132A   26182.43968120  .00001502  00000+0  12845-3 0  9998
2 69502  97.6884 245.9264 0013462 216.2342 143.7970 14.99074400  2915
2026-132B               
1 69503U 26132B   26182.43854302  .00001269  00000+0  10902-3 0  9997
2 69503  97.6915 245.9356 0013357 218.3785 141.6489 14.99157786  2911
BRO-22                  
1 69504U 26132C   26182.43049786  .00001170  00000+0  99311-4 0  9993
2 69504  97.6845 245.9286 0015180 231.1967 128.7901 14.99778557  2917
HORN-L                  
1 69505U 26132D   26180.25777275  .00003719  00000+0  25851-3 0  9991
2 69505  97.6856 243.8572 0020044 250.8339 109.0718 15.05986778  2597
VERTECS                 
1 69506U 26132E   26182.61587991  .00002829  00000+0  22629-3 0  9999
2 69506  97.6863 246.1557 0013997 252.7856 107.1836 15.00940898  2935
HORN-R                  
1 69507U 26132F   26182.13201597  .00001861  00000+0  13953-3 0  9997
2 69507  97.6839 245.6971 0016067 247.6281 112.3242 15.03814155  2869
STARLINK-37536          
1 69508U 26133A   26182.58335648 -.02354889  00000+0 -25702-1 0  9991
2 69508  53.1595 250.1275 0000887  64.0667 219.0911 15.65992972  4284
STARLINK-37341          
1 69509U 26133B   26182.58335648 -.02517229  00000+0 -29200-1 0  9998
2 69509  53.1594 250.1115 0000861  63.5952 227.4346 15.64726171  4280
